CCSDS_OMM_VERS = 2.0
CREATION_DATE  = 
ORIGINATOR     = 

OBJECT_NAME    = STARLINK-36092
OBJECT_ID      = 2025-281X
CENTER_NAME    = EARTH
REF_FRAME      = TEME
TIME_SYSTEM    = UTC
MEAN_ELEMENT_THEORY = SGP/SGP4

EPOCH          = 2025-12-31T12:14:09.520224
MEAN_MOTION    = 15.50647181
ECCENTRICITY   = .00033196
INCLINATION    = 43.0055
RA_OF_ASC_NODE = 9.7919
ARG_OF_PERICENTER = 279.0049
MEAN_ANOMALY   = 81.0435

EPHEMERIS_TYPE = 0
CLASSIFICATION_TYPE = U
NORAD_CAT_ID   = 66869
ELEMENT_SET_NO = 999
REV_AT_EPOCH   = 573
BSTAR          = .17931238E-2
MEAN_MOTION_DOT = .106566E-2
MEAN_MOTION_DDOT = 0

CCSDS_OMM_VERS = 2.0
CREATION_DATE  = 
ORIGINATOR     = 

OBJECT_NAME    = STARLINK-36114
OBJECT_ID      = 2025-281Y
CENTER_NAME    = EARTH
REF_FRAME      = TEME
TIME_SYSTEM    = UTC
MEAN_ELEMENT_THEORY = SGP/SGP4

EPOCH          = 2025-12-31T10:40:54.185376
MEAN_MOTION    = 15.50709710
ECCENTRICITY   = .00043829
INCLINATION    = 43.0003
RA_OF_ASC_NODE = 10.1674
ARG_OF_PERICENTER = 273.8124
MEAN_ANOMALY   = 86.2235

EPHEMERIS_TYPE = 0
CLASSIFICATION_TYPE = U
NORAD_CAT_ID   = 66870
ELEMENT_SET_NO = 999
REV_AT_EPOCH   = 572
BSTAR          = .18825644E-2
MEAN_MOTION_DOT = .112246E-2
MEAN_MOTION_DDOT = 0

CCSDS_OMM_VERS = 2.0
CREATION_DATE  = 
ORIGINATOR     = 

OBJECT_NAME    = STARLINK-36095
OBJECT_ID      = 2025-281Z
CENTER_NAME    = EARTH
REF_FRAME      = TEME
TIME_SYSTEM    = UTC
MEAN_ELEMENT_THEORY = SGP/SGP4

EPOCH          = 2025-12-31T01:23:52.855296
MEAN_MOTION    = 15.50664388
ECCENTRICITY   = .00018669
INCLINATION    = 42.9992
RA_OF_ASC_NODE = 12.4229
ARG_OF_PERICENTER = 292.0670
MEAN_ANOMALY   = 67.9992

EPHEMERIS_TYPE = 0
CLASSIFICATION_TYPE = U
NORAD_CAT_ID   = 66871
ELEMENT_SET_NO = 999
REV_AT_EPOCH   = 566
BSTAR          = .20954038E-2
MEAN_MOTION_DOT = .124948E-2
MEAN_MOTION_DDOT = 0

CCSDS_OMM_VERS = 2.0
CREATION_DATE  = 
ORIGINATOR     = 

OBJECT_NAME    = STARLINK-36082
OBJECT_ID      = 2025-281AA
CENTER_NAME    = EARTH
REF_FRAME      = TEME
TIME_SYSTEM    = UTC
MEAN_ELEMENT_THEORY = SGP/SGP4

EPOCH          = 2025-12-31T10:39:55.415232
MEAN_MOTION    = 15.50631301
ECCENTRICITY   = .0002444
INCLINATION    = 43.0040
RA_OF_ASC_NODE = 10.1595
ARG_OF_PERICENTER = 273.4638
MEAN_ANOMALY   = 86.5942

EPHEMERIS_TYPE = 0
CLASSIFICATION_TYPE = U
NORAD_CAT_ID   = 66872
ELEMENT_SET_NO = 999
REV_AT_EPOCH   = 572
BSTAR          = .18877221E-2
MEAN_MOTION_DOT = .112216E-2
MEAN_MOTION_DDOT = 0

CCSDS_OMM_VERS = 2.0
CREATION_DATE  = 
ORIGINATOR     = 

OBJECT_NAME    = STARLINK-36128
OBJECT_ID      = 2025-281AB
CENTER_NAME    = EARTH
REF_FRAME      = TEME
TIME_SYSTEM    = UTC
MEAN_ELEMENT_THEORY = SGP/SGP4

EPOCH          = 2025-12-31T01:21:54.307584
MEAN_MOTION    = 15.50661944
ECCENTRICITY   = .00001796
INCLINATION    = 42.9971
RA_OF_ASC_NODE = 12.4110
ARG_OF_PERICENTER = 239.1429
MEAN_ANOMALY   = 120.9414

EPHEMERIS_TYPE = 0
CLASSIFICATION_TYPE = U
NORAD_CAT_ID   = 66873
ELEMENT_SET_NO = 999
REV_AT_EPOCH   = 561
BSTAR          = .2056223E-2
MEAN_MOTION_DOT = .122556E-2
MEAN_MOTION_DDOT = 0

CCSDS_OMM_VERS = 2.0
CREATION_DATE  = 
ORIGINATOR     = 

OBJECT_NAME    = STARLINK-36129
OBJECT_ID      = 2025-281AC
CENTER_NAME    = EARTH
REF_FRAME      = TEME
TIME_SYSTEM    = UTC
MEAN_ELEMENT_THEORY = SGP/SGP4

EPOCH          = 2025-12-31T07:33:54.830016
MEAN_MOTION    = 15.50612691
ECCENTRICITY   = .0000711
INCLINATION    = 43.0007
RA_OF_ASC_NODE = 10.9091
ARG_OF_PERICENTER = 165.2086
MEAN_ANOMALY   = 194.8795

EPHEMERIS_TYPE = 0
CLASSIFICATION_TYPE = U
NORAD_CAT_ID   = 66874
ELEMENT_SET_NO = 999
REV_AT_EPOCH   = 570
BSTAR          = .23619E-2
MEAN_MOTION_DOT = .140911E-2
MEAN_MOTION_DDOT = 0

CCSDS_OMM_VERS = 2.0
CREATION_DATE  = 
ORIGINATOR     = 

OBJECT_NAME    = STARLINK-36053
OBJECT_ID      = 2025-281AD
CENTER_NAME    = EARTH
REF_FRAME      = TEME
TIME_SYSTEM    = UTC
MEAN_ELEMENT_THEORY = SGP/SGP4

EPOCH          = 2025-12-31T10:37:57.028224
MEAN_MOTION    = 15.50619325
ECCENTRICITY   = .00022753
INCLINATION    = 43.0013
RA_OF_ASC_NODE = 10.1473
ARG_OF_PERICENTER = 297.0414
MEAN_ANOMALY   = 63.0213

EPHEMERIS_TYPE = 0
CLASSIFICATION_TYPE = U
NORAD_CAT_ID   = 66875
ELEMENT_SET_NO = 999
REV_AT_EPOCH   = 567
BSTAR          = .21314377E-2
MEAN_MOTION_DOT = .126933E-2
MEAN_MOTION_DDOT = 0

CCSDS_OMM_VERS = 2.0
CREATION_DATE  = 
ORIGINATOR     = 

OBJECT_NAME    = STARLINK-35702
OBJECT_ID      = 2025-281AE
CENTER_NAME    = EARTH
REF_FRAME      = TEME
TIME_SYSTEM    = UTC
MEAN_ELEMENT_THEORY = SGP/SGP4

EPOCH          = 2025-12-31T07:33:25.140384
MEAN_MOTION    = 15.50604594
ECCENTRICITY   = .000067
INCLINATION    = 43.0004
RA_OF_ASC_NODE = 10.9061
ARG_OF_PERICENTER = 172.6592
MEAN_ANOMALY   = 187.4278

EPHEMERIS_TYPE = 0
CLASSIFICATION_TYPE = U
NORAD_CAT_ID   = 66876
ELEMENT_SET_NO = 999
REV_AT_EPOCH   = 570
BSTAR          = .21239E-2
MEAN_MOTION_DOT = .126402E-2
MEAN_MOTION_DDOT = 0

CCSDS_OMM_VERS = 2.0
CREATION_DATE  = 
ORIGINATOR     = 

OBJECT_NAME    = ZQ-3 R/B
OBJECT_ID      = 2025-282A
CENTER_NAME    = EARTH
REF_FRAME      = TEME
TIME_SYSTEM    = UTC
MEAN_ELEMENT_THEORY = SGP/SGP4

EPOCH          = 2025-12-31T22:34:26.869728
MEAN_MOTION    = 14.99224242
ECCENTRICITY   = .06159158
INCLINATION    = 56.9470
RA_OF_ASC_NODE = 341.9807
ARG_OF_PERICENTER = 254.2363
MEAN_ANOMALY   = 98.9957

EPHEMERIS_TYPE = 0
CLASSIFICATION_TYPE = U
NORAD_CAT_ID   = 66877
ELEMENT_SET_NO = 999
REV_AT_EPOCH   = 423
BSTAR          = .16228458E-3
MEAN_MOTION_DOT = .110478E-1
MEAN_MOTION_DDOT = .8209956E-5

CCSDS_OMM_VERS = 2.0
CREATION_DATE  = 
ORIGINATOR     = 

OBJECT_NAME    = STARLINK-35866
OBJECT_ID      = 2025-283A
CENTER_NAME    = EARTH
REF_FRAME      = TEME
TIME_SYSTEM    = UTC
MEAN_ELEMENT_THEORY = SGP/SGP4

EPOCH          = 2025-12-31T22:25:49.991232
MEAN_MOTION    = 15.49366549
ECCENTRICITY   = .00023363
INCLINATION    = 53.1606
RA_OF_ASC_NODE = 339.3716
ARG_OF_PERICENTER = 116.9107
MEAN_ANOMALY   = 243.2141

EPHEMERIS_TYPE = 0
CLASSIFICATION_TYPE = U
NORAD_CAT_ID   = 66878
ELEMENT_SET_NO = 999
REV_AT_EPOCH   = 546
BSTAR          = .17099923E-2
MEAN_MOTION_DOT = .9603E-3
MEAN_MOTION_DDOT = 0

CCSDS_OMM_VERS = 2.0
CREATION_DATE  = 
ORIGINATOR     = 

OBJECT_NAME    = STARLINK-35749
OBJECT_ID      = 2025-283B
CENTER_NAME    = EARTH
REF_FRAME      = TEME
TIME_SYSTEM    = UTC
MEAN_ELEMENT_THEORY = SGP/SGP4

EPOCH          = 2025-12-31T22:24:20.505888
MEAN_MOTION    = 15.50243155
ECCENTRICITY   = .00060027
INCLINATION    = 53.1599
RA_OF_ASC_NODE = 339.3663
ARG_OF_PERICENTER = 264.8890
MEAN_ANOMALY   = 95.1434

EPHEMERIS_TYPE = 0
CLASSIFICATION_TYPE = U
NORAD_CAT_ID   = 66879
ELEMENT_SET_NO = 999
REV_AT_EPOCH   = 546
BSTAR          = .15375667E-2
MEAN_MOTION_DOT = .88988E-3
MEAN_MOTION_DDOT = 0

CCSDS_OMM_VERS = 2.0
CREATION_DATE  = 
ORIGINATOR     = 

OBJECT_NAME    = STARLINK-35844
OBJECT_ID      = 2025-283C
CENTER_NAME    = EARTH
REF_FRAME      = TEME
TIME_SYSTEM    = UTC
MEAN_ELEMENT_THEORY = SGP/SGP4

EPOCH          = 2025-12-31T08:29:19.489056
MEAN_MOTION    = 15.49364891
ECCENTRICITY   = .000183
INCLINATION    = 53.1601
RA_OF_ASC_NODE = 342.1476
ARG_OF_PERICENTER = 95.6145
MEAN_ANOMALY   = 264.5073

EPHEMERIS_TYPE = 0
CLASSIFICATION_TYPE = U
NORAD_CAT_ID   = 66880
ELEMENT_SET_NO = 999
REV_AT_EPOCH   = 537
BSTAR          = .99538758E-3
MEAN_MOTION_DOT = .55415E-3
MEAN_MOTION_DDOT = 0

