STARLINK-36092          
1 66869U 25281X   25365.50983241  .00106566  00000+0  17931-2 0  9992
2 66869  43.0055   9.7919 0003319 279.0049  81.0435 15.50647181  5730
STARLINK-36114          
1 66870U 25281Y   25365.44507159  .00112246  00000+0  18826-2 0  9993
2 66870  43.0003  10.1674 0004382 273.8124  86.2235 15.50709710  5727
STARLINK-36095          
1 66871U 25281Z   25365.05825064  .00124948  00000+0  20954-2 0  9996
2 66871  42.9992  12.4229 0001866 292.0670  67.9992 15.50664388  5667
STARLINK-36082          
1 66872U 25281AA  25365.44439138  .00112216  00000+0  18877-2 0  9999
2 66872  43.0040  10.1595 0002444 273.4638  86.5942 15.50631301  5723
STARLINK-36128          
1 66873U 25281AB  25365.05687856  .00122556  00000+0  20562-2 0  9991
2 66873  42.9971  12.4110 0000179 239.1429 120.9414 15.50661944  5614
STARLINK-36129          
1 66874U 25281AC  25365.31521794  .00140911  00000+0  23619-2 0  9990
2 66874  43.0007  10.9091 0000711 165.2086 194.8795 15.50612691  5705
STARLINK-36053          
1 66875U 25281AD  25365.44302116  .00126933  00000+0  21314-2 0  9998
2 66875  43.0013  10.1473 0002275 297.0414  63.0213 15.50619325  5674
STARLINK-35702          
1 66876U 25281AE  25365.31487431  .00126402  00000+0  21239-2 0  9996
2 66876  43.0004  10.9061 0000670 172.6592 187.4278 15.50604594  5706
ZQ-3 R/B                
1 66877U 25282A   25365.94058877  .01104780  82100-5  16228-3 0  9991
2 66877  56.9470 341.9807 0615915 254.2363  98.9957 14.99224242  4236
STARLINK-35866          
1 66878U 25283A   25365.93460638  .00096030  00000+0  17100-2 0  9993
2 66878  53.1606 339.3716 0002336 116.9107 243.2141 15.49366549  5463
STARLINK-35749          
1 66879U 25283B   25365.93357067  .00088988  00000+0  15376-2 0  9991
2 66879  53.1599 339.3663 0006002 264.8890  95.1434 15.50243155  5460
STARLINK-35844          
1 66880U 25283C   25365.35369779  .00055415  00000+0  99539-3 0  9995
2 66880  53.1601 342.1476 0001830  95.6145 264.5073 15.49364891  5377
